NORAD_CAT_ID,OBJECT_NAME,OBJECT_TYPE,EPOCH,MEAN_MOTION,ECCENTRICITY,INCLINATION,RA_OF_ASC_NODE,ARG_OF_PERICENTER,MEAN_ANOMALY,BSTAR,MEAN_MOTION_DOT,MEAN_MOTION_DDOT,TLE_LINE0,TLE_LINE1,TLE_LINE2,SEMIMAJOR_AXIS,PERIOD,APOGEE,PERIGEE,DECAYED
53538.0,STARLINK-4118,PAYLOAD,2023-03-01 02:05:54,15.08768163,0.0001837,53.2182,342.8723,106.3292,253.7902,0.0010705,0.00016757,0.0,0 STARLINK-4118,1 53538U 22101M   23060.08744123  .00016757  00000-0  10705-2 0  9991,2 53538  53.2182 342.8723 0001837 106.3292 253.7902 15.08768163 29541,6918.1,95.442,541.236,538.694,0.0
53538.0,STARLINK-4118,PAYLOAD,2023-03-01 06:52:05,15.08776758,0.0001816,53.218,341.9797,105.9546,254.1646,0.0010489,0.00016416,0.0,0 STARLINK-4118,1 53538U 22101M   23060.28616945  .00016416  00000-0  10489-2 0  9994,2 53538  53.2180 341.9797 0001816 105.9546 254.1646 15.08776758 30264,6918.074,95.442,541.195,538.682,0.0
53538.0,STARLINK-4118,PAYLOAD,2023-03-02 03:32:04,15.08890564,0.0001883,53.2184,338.1167,114.5903,245.5285,0.0038758,0.00062025,0.0,0 STARLINK-4118,1 53538U 22101M   23061.14727749  .00062025  00000-0  38758-2 0  9991,2 53538  53.2184 338.1167 0001883 114.5903 245.5285 15.08890564 29706,6917.726,95.434,540.893,538.288,0.0
53538.0,STARLINK-4118,PAYLOAD,2023-03-03 03:22:50,15.08869938,0.0001629,53.2177,333.6524,139.298,220.8134,-8.4161e-05,-1.628e-05,0.0,0 STARLINK-4118,1 53538U 22101M   23062.14086335 -.00001628  00000-0 -84161-4 0  9996,2 53538  53.2177 333.6524 0001629 139.2980 220.8134 15.08869938 29858,6917.789,95.436,540.781,538.527,0.0
53538.0,STARLINK-4118,PAYLOAD,2023-03-04 00:02:51,15.08855473,0.0001654,53.2192,329.7861,81.1476,278.9703,0.00056111,8.657e-05,0.0,0 STARLINK-4118,1 53538U 22101M   23063.00198466  .00008657  00000-0  56111-3 0  9991,2 53538  53.2192 329.7861 0001654  81.1476 278.9703 15.08855473 29987,6917.833,95.437,540.842,538.554,0.0
53538.0,STARLINK-4118,PAYLOAD,2023-03-04 17:32:06,15.08838327,0.000144,53.2176,326.5201,74.184,285.9311,0.00013595,1.876e-05,0.0,0 STARLINK-4118,1 53538U 22101M   23063.73063183  .00001876  00000-0  13595-3 0  9993,2 53538  53.2176 326.5201 0001440  74.1840 285.9311 15.08838327 30098,6917.886,95.438,540.747,538.754,0.0
53538.0,STARLINK-4118,PAYLOAD,2023-03-04 23:53:39,15.08831864,0.0001337,53.2184,325.3254,75.1222,284.9918,-2.2508e-05,-6.46e-06,0.0,0 STARLINK-4118,1 53538U 22101M   23063.99559573 -.00000646  00000-0 -22508-4 0  9995,2 53538  53.2184 325.3254 0001337  75.1222 284.9918 15.08831864 30138,6917.905,95.438,540.695,538.845,0.0
53538.0,STARLINK-4118,PAYLOAD,2023-03-05 22:09:03,15.08847087,0.0001385,53.2174,321.1619,62.732,297.3813,0.00042644,6.507e-05,0.0,0 STARLINK-4118,1 53538U 22101M   23064.92295678  .00006507  00000-0  42644-3 0  9994,2 53538  53.2174 321.1619 0001385  62.7320 297.3813 15.08847087 30967,6917.859,95.437,540.682,538.766,0.0
53538.0,STARLINK-4118,PAYLOAD,2023-03-05 23:44:26,15.08857525,0.0001271,53.2183,320.8675,59.0944,301.0173,0.0012713,0.00020012,0.0,0 STARLINK-4118,1 53538U 22101M   23064.98919767  .00020012  00000-0  12713-2 0  9992,2 53538  53.2183 320.8675 0001271  59.0944 301.0173 15.08857525 30285,6917.827,95.436,540.571,538.813,0.0
53538.0,STARLINK-4118,PAYLOAD,2023-03-06 17:13:41,15.08832231,0.000112,53.2186,317.5968,82.0543,278.0576,-0.0001176,-2.158e-05,0.0,0 STARLINK-4118,1 53538U 22101M   23065.71784106 -.00002158  00000-0 -11760-3 0  9996,2 53538  53.2186 317.5968 0001120  82.0543 278.0576 15.08832231 30399,6917.904,95.438,540.544,538.994,0.0
53538.0,STARLINK-4118,PAYLOAD,2023-03-06 23:35:13,15.08843239,0.000122,53.2183,316.4075,77.5415,282.5714,0.0001768,2.527e-05,0.0,0 STARLINK-4118,1 53538U 22101M   23065.98279838  .00002527  00000-0  17680-3 0  9991,2 53538  53.2183 316.4075 0001220  77.5415 282.5714 15.08843239 30430,6917.87,95.437,540.579,538.892,0.0
53538.0,STARLINK-4118,PAYLOAD,2023-03-07 17:04:28,15.08842468,0.0001051,53.2178,313.1383,89.8584,270.2529,0.00020194,2.928e-05,0.0,0 STARLINK-4118,1 53538U 22101M   23066.71144008  .00002928  00000-0  20194-3 0  9992,2 53538  53.2178 313.1383 0001051  89.8584 270.2529 15.08842468 31235,6917.873,95.437,540.465,539.011,0.0
53538.0,STARLINK-4118,PAYLOAD,2023-03-08 02:36:46,15.08859012,9.87e-05,53.2174,311.3513,73.9212,286.1888,0.00097569,0.00015282,0.0,0 STARLINK-4118,1 53538U 22101M   23067.10887538  .00015282  00000-0  97569-3 0  9995,2 53538  53.2174 311.3513 0000987  73.9212 286.1888 15.08859012 30602,6917.822,95.436,540.37,539.004,0.0
53538.0,STARLINK-4118,PAYLOAD,2023-03-08 16:55:15,15.08827945,9.02e-05,53.2166,308.6767,89.6521,270.4574,-0.00021467,-3.701e-05,0.0,0 STARLINK-4118,1 53538U 22101M   23067.70504442 -.00003701  00000-0 -21467-3 0  9990,2 53538  53.2166 308.6767 0000902  89.6521 270.4574 15.08827945 30694,6917.917,95.438,540.406,539.158,0.0
53538.0,STARLINK-4118,PAYLOAD,2023-03-08 23:16:48,15.08845039,7.73e-05,53.2162,307.487,86.3163,273.7917,0.00030594,4.585e-05,0.0,0 STARLINK-4118,1 53538U 22101M   23067.97000289  .00004585  00000-0  30594-3 0  9999,2 53538  53.2162 307.4870 0000773  86.3163 273.7917 15.08845039 30730,6917.865,95.437,540.265,539.195,0.0
53538.0,STARLINK-4118,PAYLOAD,2023-03-09 15:10:39,15.08841921,9.78e-05,53.2174,304.5147,87.2921,272.8183,0.00012158,1.648e-05,0.0,0 STARLINK-4118,1 53538U 22101M   23068.63240458  .00001648  00000-0  12158-3 0  9990,2 53538  53.2174 304.5147 0000978  87.2921 272.8183 15.08841921 30839,6917.875,95.437,540.416,539.063,0.0
53538.0,STARLINK-4118,PAYLOAD,2023-03-09 21:32:11,15.08856155,0.0001065,53.2163,303.3238,90.621,269.4904,0.00041433,6.315e-05,0.0,0 STARLINK-4118,1 53538U 22101M   23068.89735895  .00006315  00000-0  41433-3 0  9996,2 53538  53.2163 303.3238 0001065  90.6210 269.4904 15.08856155 31561,6917.831,95.437,540.433,538.959,0.0
53538.0,STARLINK-4118,PAYLOAD,2023-03-09 23:07:34,15.08864362,6.66e-05,53.2165,303.0234,88.2271,271.8798,0.0005292,8.15e-05,0.0,0 STARLINK-4118,1 53538U 22101M   23068.96359441  .00008150  00000-0  52920-3 0  9995,2 53538  53.2165 303.0234 0000666  88.2271 271.8798 15.08864362 30883,6917.806,95.436,540.132,539.21,0.0
53538.0,STARLINK-4118,PAYLOAD,2023-03-10 08:39:54,15.08840656,0.0001465,53.216,301.2422,65.0334,295.081,0.00014113,1.959e-05,0.0,0 STARLINK-4118,1 53538U 22101M   23069.36104608  .00001959  00000-0  14113-3 0  9995,2 53538  53.2160 301.2422 0001465  65.0334 295.0810 15.08840656 30948,6917.878,95.438,540.757,538.73,0.0
53538.0,STARLINK-4118,PAYLOAD,2023-03-10 19:47:36,15.08825255,0.0001234,53.2163,299.1628,58.7053,301.406,-0.00020726,-3.583e-05,0.0,0 STARLINK-4118,1 53538U 22101M   23069.82473221 -.00003583  00000-0 -20726-3 0  9990,2 53538  53.2163 299.1628 0001234  58.7053 301.4060 15.08825255 31011,6917.925,95.438,540.644,538.937,0.0
53538.0,STARLINK-4118,PAYLOAD,2023-03-10 21:23:00,15.0882772,0.0001074,53.2159,298.8649,56.6142,303.4953,-0.00011427,-2.105e-05,0.0,0 STARLINK-4118,1 53538U 22101M   23069.89097267 -.00002105  00000-0 -11427-3 0  9996,2 53538  53.2159 298.8649 0001074  56.6142 303.4953 15.08827720 31712,6917.918,95.438,540.526,539.04,0.0
53538.0,STARLINK-4118,PAYLOAD,2023-03-11 02:09:08,15.08843935,0.0001012,53.2169,297.9707,68.4578,291.6522,0.00020741,3.015e-05,0.0,0 STARLINK-4118,1 53538U 22101M   23070.08968673  .00003015  00000-0  20741-3 0  9995,2 53538  53.2169 297.9707 0001012  68.4578 291.6522 15.08843935 31057,6917.868,95.437,540.433,539.033,0.0
53538.0,STARLINK-4118,PAYLOAD,2023-03-11 18:03:00,15.08841138,0.0001153,53.2171,294.997,70.6522,289.4594,7.0296e-05,8.31e-06,0.0,0 STARLINK-4118,1 53538U 22101M   23070.75208936  .00000831  00000-0  70296-4 0  9992,2 53538  53.2171 294.9970 0001153  70.6522 289.4594 15.08841138 31157,6917.877,95.437,540.54,538.944,0.0
53538.0,STARLINK-4118,PAYLOAD,2023-03-11 21:13:46,15.08853135,0.0001358,53.2175,294.4011,94.9976,265.1171,0.00028492,4.251e-05,0.0,0 STARLINK-4118,1 53538U 22101M   23070.88456444  .00004251  00000-0  28492-3 0  9995,2 53538  53.2175 294.4011 0001358  94.9976 265.1171 15.08853135 31861,6917.84,95.437,540.645,538.766,0.0
53538.0,STARLINK-4118,PAYLOAD,2023-03-12 00:24:32,15.08853571,0.0001323,53.2175,293.8059,82.4886,277.6257,0.00032879,4.951e-05,0.0,0 STARLINK-4118,1 53538U 22101M   23071.01704419  .00004951  00000-0  32879-3 0  9990,2 53538  53.2175 293.8059 0001323  82.4886 277.6257 15.08853571 31193,6917.839,95.437,540.619,538.789,0.0
53538.0,STARLINK-4118,PAYLOAD,2023-03-13 00:15:19,15.08850528,0.0001627,53.2182,289.3458,64.2058,295.9102,0.00024749,3.654e-05,0.0,0 STARLINK-4118,1 53538U 22101M   23072.01064603  .00003654  00000-0  24749-3 0  9991,2 53538  53.2182 289.3458 0001627  64.2058 295.9102 15.08850528 31348,6917.848,95.437,540.839,538.588,0.0
53538.0,STARLINK-4118,PAYLOAD,2023-03-14 00:06:07,15.08835338,0.0001133,53.2169,284.8845,91.724,268.3882,-6.1308e-05,-1.263e-05,0.0,0 STARLINK-4118,1 53538U 22101M   23073.00425090 -.00001263  00000-0 -61308-4 0  9991,2 53538  53.2169 284.8845 0001133  91.7240 268.3882 15.08835338 31490,6917.895,95.438,540.543,538.976,0.0
53538.0,STARLINK-4118,PAYLOAD,2023-03-14 14:24:35,15.0884167,7.64e-05,53.2172,282.2085,107.1077,252.9999,0.00011154,1.488e-05,0.0,0 STARLINK-4118,1 53538U 22101M   23073.60041078  .00001488  00000-0  11154-3 0  9997,2 53538  53.2172 282.2085 0000764 107.1077 252.9999 15.08841670 32272,6917.875,95.437,540.269,539.212,0.0
53538.0,STARLINK-4118,PAYLOAD,2023-03-14 20:46:07,15.08857029,0.0001008,53.2159,281.0213,88.9576,271.1532,0.00050396,7.745e-05,0.0,0 STARLINK-4118,1 53538U 22101M   23073.86536836  .00007745  00000-0  50396-3 0  9999,2 53538  53.2159 281.0213 0001008  88.9576 271.1532 15.08857029 31628,6917.828,95.436,540.391,538.996,0.0
53538.0,STARLINK-4118,PAYLOAD,2023-03-15 01:32:16,15.08871041,7.23e-05,53.2169,280.1276,95.9511,264.1564,0.0019133,0.00030319,0.0,0 STARLINK-4118,1 53538U 22101M   23074.06408492  .00030319  00000-0  19133-2 0  9994,2 53538  53.2169 280.1276 0000723  95.9511 264.1564 15.08871041 31658,6917.786,95.436,540.151,539.15,0.0
